{
  "norad_id": 53567,
  "name": "STARLINK-4585",
  "history": [
    {
      "epoch": "2026-03-28T21:34:35.506848",
      "apogee_km": 540.6562219757407,
      "perigee_km": 538.853419367274,
      "latitude_deg": 37.7027149563864,
      "longitude_deg": -16.993881279835477,
      "semi_major_axis_km": 6917.891820671507,
      "eccentricity": 0.0001303,
      "inclination_deg": 53.2183,
      "raan_deg": 327.9909,
      "arg_perigee_deg": 86.2385,
      "mean_anomaly_deg": 273.8756,
      "mean_motion_rev_day": 15.0883626
    }
  ]
}