{"fetched_at":"2026-03-29T16:36:15Z","count":15609,"tles":[{"name":"STARLINK-4585","line1":"1 53567U 22101AS  26087.89902207  .00000278  00000+0  35527-4 0  9994","line2":"2 53567  53.2183 327.9909 0001303  86.2385 273.8756 15.08836260199341","category":"Starlink"}]}